RADUGA 1 [-]            
1 08513U 75123A   23018.89216806 -.00000010  00000+0  00000+0 0  9999
2 08513   6.0079 285.5795 0006463 222.1554   0.5035  1.00292657182457
RADUGA 2 [-]            
1 09416U 76092A   23018.81582976 -.00000167  00000+0  00000+0 0  9997
2 09416   6.6727 287.6052 0027762   3.6582 206.1940  1.00280534116843
RADUGA 3 [-]            
1 10159U 77071A   23018.78071653  .00000042  00000+0  00000+0 0  9993
2 10159   7.2907 290.2650 0008475 245.0294 289.3845  1.00189780164551
RADUGA 4 [-]            
1 10987U 78073A   23018.81112285  .00000046  00000+0  00000+0 0  9990
2 10987   7.9218 293.8559 0008930   4.6791 173.1517  1.00344807107114
RADUGA 5 [-]            
1 11343U 79035A   23018.77549519 -.00000068  00000+0  00000+0 0  9990
2 11343   8.3845 296.6779 0005970 174.2956   2.4268  1.00247149116865
RADUGA 6 [-]            
1 11708U 80016A   23017.67528093 -.00000253  00000+0  00000+0 0  9994
2 11708   8.7534 299.8294 0002103 204.0609 311.4764  1.00326907109662
RADUGA 7 [-]            
1 12003U 80081A   23018.20882778 -.00000167  00000+0  00000+0 0  9992
2 12003   8.9401 301.8111 0009478 272.4296 312.4121  1.00262380110812
RADUGA 8 [-]            
1 12351U 81027A   23018.68108170 -.00000155  00000+0  00000+0 0  9995
2 12351   9.2713 302.3753 0081314 234.1212 337.0739  1.00347860110048
RADUGA 9 [-]            
1 12618U 81069A   23018.81738715 -.00000247  00000+0  00000+0 0  9998
2 12618   9.4989 305.4130 0003164 147.4278  53.0782  1.00344710 34857
RADUGA 10 [-]           
1 12897U 81102A   23018.78418979 -.00000149  00000+0  00000+0 0  9999
2 12897   9.5864 306.4141 0005072 185.1221 352.8459  1.00260115104854
RADUGA 11 [-]           
1 13669U 82113A   23018.60465701 -.00000086  00000+0  00000+0 0  9996
2 13669  11.6728 320.3684 0038210 259.0544 324.1165  0.97708966109364
RADUGA 12 [-]           
1 13974U 83028A   23018.90029201 -.00000083  00000+0  00000+0 0  9992
2 13974  10.7622 316.3137 0001760  91.3095 110.4896  1.00295211156898
RADUGA 13 [-]           
1 14307U 83088A   23018.57834442 -.00000143  00000+0  00000+0 0  9990
2 14307  11.9294 321.9015 0015702  43.0995 149.3359  0.98175170106716
RADUGA 14 [-]           
1 14725U 84016A   23018.88642177 -.00000112  00000+0  00000+0 0  9998
2 14725  10.9837 320.1398 0004267 136.9394  59.9869  1.00247489105590
RADUGA 15 [-]           
1 15057U 84063A   23018.75211216 -.00000332  00000+0  00000+0 0  9995
2 15057  11.1095 321.1272 0004951 161.6523  31.6353  1.00239763128618
RADUGA 16 [-]           
1 15946U 85070A   23019.12022472  .00000124  00000+0  00000+0 0  9995
2 15946  11.5943 325.8303 0001545 167.3167 238.7718  1.00345816109734
RADUGA 17 [-]           
1 16250U 85107A   23018.53764385  .00000119  00000+0  00000+0 0  9999
2 16250  11.7239 327.2497 0012810 189.3534  11.6634  1.00144813139194
RADUGA 18 [-]           
1 16497U 86007A   23018.65371678 -.00000211  00000+0  00000+0 0  9998
2 16497  12.5418 329.9798 0074308 169.3156  25.6157  0.98815422133552
RADUGA 19 [-]           
1 17046U 86082A   23018.78715249 -.00000123  00000+0  00000+0 0  9994
2 17046  12.9904 333.9433 0012605 152.9992 216.3226  0.98460392130652
RADUGA 20 [-]           
1 17611U 87028A   23018.38636150 -.00000067  00000+0  00000+0 0  9999
2 17611  15.0197 337.4441 0030253 142.3015 227.8347  0.95960755126363
RADUGA 21 [-]           
1 18631U 87100A   23018.98773990  .00000052  00000+0  00000+0 0  9996
2 18631  13.0871 334.7104 0003186 133.6338 233.9195  1.00347686128590
RADUGA 22 [-]           
1 19596U 88095A   23018.38566420 -.00000177  00000+0  00000+0 0  9992
2 19596  13.0933 339.0717 0007105 142.1720 221.6609  1.00161308109164
RADUGA 23 [-]           
1 19928U 89030A   23018.38470538 -.00000176  00000+0  00000+0 0  9994
2 19928  13.2534 340.8942 0020993 168.1959 188.5776  1.00364015122356
RADUGA-1 1 [-]          
1 20083U 89048A   23019.22151620 -.00000210  00000+0  00000+0 0  9998
2 20083  14.0215 343.9771 0022268 119.3116  56.3015  0.98710050118970
RADUGA 24 [-]           
1 20367U 89098A   23016.51250946  .00000127  00000+0  00000+0 0  9994
2 20367  13.8438 343.1432 0001810 147.6088 213.9571  1.00263062120462
RADUGA 25 [-]           
1 20499U 90016A   23019.48746032 -.00000014  00000+0  00000+0 0  9993
2 20499  13.6129 343.8005 0004676 148.1373  45.6054  1.00166778120464
RADUGA 26 [-]           
1 21016U 90112A   23018.38610001 -.00000229  00000+0  00000+0 0  9998
2 21016  13.9483 347.0602 0007063  95.8316 262.2036  1.00311424117769
RADUGA-1 2 [-]          
1 21038U 90116A   23018.45234538  .00000019  00000+0  00000+0 0  9997
2 21038  13.9877 347.1293 0008332 106.4054 247.8661  1.00320747 34843
RADUGA 27 [-]           
1 21132U 91014A   23018.51937521  .00000134  00000+0  00000+0 0  9997
2 21132  14.4950 346.6184 0003156  95.4165 259.9854  1.00343837116819
RADUGA 28 [-]           
1 21821U 91087A   23018.52303615  .00000071  00000+0  00000+0 0  9994
2 21821  14.2839 350.4000 0006831 128.3146 243.6285  1.00192452113838
RADUGA 29 [-]           
1 22557U 93013A   23018.45679080 -.00000208  00000+0  00000+0 0  9999
2 22557  14.5177 354.5711 0007078 117.2222 254.3580  1.00383249109190
RADUGA 30 [-]           
1 22836U 93062A   23018.45408868 -.00000049  00000+0  00000+0 0  9990
2 22836  14.5707 356.5548 0001475 346.1845   8.0211  1.00266625 33502
RADUGA-1 3 [-]          
1 22981U 94008A   23018.45487316 -.00000078  00000+0  00000+0 0  9999
2 22981  14.6554 357.7016 0003202 105.3938 252.2441  1.00214511105982
RADUGA 31 [-]           
1 23010U 94012A   23018.38653583 -.00000251  00000+0  00000+0 0  9994
2 23010  14.6256 357.6988 0005248  98.6144 250.7649  1.00330286105854
RADUGA 32 [-]           
1 23448U 94087A   23018.45435017 -.00000060  00000+0  00000+0 0  9997
2 23448  14.6261   0.4218 0004934 208.6307 142.9327  1.00266315120380
RADUGA-1 4 [-]          
1 25642U 99010A   23018.52530243 -.00000050  00000+0  00000+0 0  9990
2 25642  15.2712  11.9371 0002604 258.3228 103.9204  1.00353993 87460
RADUGA-1 5 [-]          
1 26477U 00049A   23019.04910612  .00000003  00000+0  00000+0 0  9998
2 26477  13.2515  16.9708 0004878  60.7221 120.2051  1.00333873 82000
RADUGA-1 6 [-]          
1 26936U 01045A   23018.86009799 -.00000122  00000+0  00000+0 0  9992
2 26936  13.4600  23.3381 0015927 170.2265 181.9841  0.97744873 76429
RADUGA-1 7 [-]          
1 28194U 04010A   23018.53018366 -.00000233  00000+0  00000+0 0  9992
2 28194  12.2163  30.1274 0001984 195.2516 175.2331  1.00171835 68933
RADUGA-1M 1 [-]         
1 32373U 07058A   23018.63728616  .00000096  00000+0  00000+0 0  9994
2 32373   7.3725  62.5377 0002141 321.7434 196.4385  0.99394196 40017
RADUGA-1 8 [-]          
1 34264U 09010A   23018.53532639 -.00000328  00000+0  00000+0 0  9991
2 34264   9.6482  52.4523 0013703   3.4590  12.5626  0.99823678 50746
RADUGA-1M 2 [+]         
1 36358U 10002A   23019.17427282 -.00000170  00000+0  00000+0 0  9993
2 36358   0.3916  97.7882 0003118 256.6446 271.5822  1.00269562 47529
RADUGA-1M 3 [+]         
1 39375U 13062A   23019.16433602  .00000166  00000+0  00000+0 0  9990
2 39375   2.7797  87.3928 0000633 172.2584 312.7362  1.00272370 33641
